[
  {
    "suburb": "Auckland Central",
    "city": "Auckland",
    "postcode": "1001"
  },
  {
    "suburb": "Wellington Suburb",
    "city": "Wellington",
    "postcode": "6011"
  },
  {
    "suburb": "Auckland Suburb",
    "city": "Auckland",
    "postcode": "7066"
  },
  {
    "suburb": "FDG",
    "city": " Ferndale",
    "postcode": "9011"
  },
  {
  "suburb": "Aro Valley",
  "city": "Wellington",
  "postcode": "6011"
  },
  {
    "suburb": "Aro Valley",
    "city": "Wellington",
    "postcode": "6012"
  },
  {
    "suburb": "Aro Valley",
    "city": "Wellington",
    "postcode": "6021"
  },
  {
    "suburb": "",
    "city": "Auckland",
    "postcode": "0650"
  },
  {
    "suburb": "",
    "city": "Auckland",
    "postcode": "0745"
  },
  {
    "suburb": "",
    "city": "Auckland",
    "postcode": "0754"
  },
  {
    "suburb": "",
    "city": "Auckland",
    "postcode": "0755"
  },
  {
    "suburb": "",
    "city": "Auckland",
    "postcode": "0757"
  },
  {
    "suburb": "",
    "city": "Auckland",
    "postcode": "1142"
  },
  {
    "suburb": "",
    "city": "Auckland",
    "postcode": "1150"
  },
  {
    "suburb": "",
    "city": "Auckland",
    "postcode": "1245"
  },
  {
    "suburb": "",
    "city": "Auckland",
    "postcode": "1344"
  },
  {
    "suburb": "",
    "city": "Auckland",
    "postcode": "1542"
  },
  {
    "suburb": "",
    "city": "Auckland",
    "postcode": "1543"
  },
  {
    "suburb": "",
    "city": "Auckland",
    "postcode": "1544"
  },
  {
    "suburb": "",
    "city": "Auckland",
    "postcode": "1546"
  },
  {
    "suburb": "",
    "city": "Auckland",
    "postcode": "1643"
  },
  {
    "suburb": "",
    "city": "Auckland",
    "postcode": "1741"
  },
  {
    "suburb": "Waiatarua",
    "city": "Auckland",
    "postcode": "0604"
  },
  {
    "suburb": "Waiatarua",
    "city": "Auckland",
    "postcode": "0612"
  },
  {
    "suburb": "Waiatarua",
    "city": "Waitakere",
    "postcode": "0604"
  },
  {
    "suburb": "Waiatarua",
    "city": "Waitakere",
    "postcode": "0612"
  }
]